{
  "norad_id": 38833,
  "name": "NAVSTAR 67 (USA 239)",
  "history": [
    {
      "epoch": "2026-03-27T01:15:46.012032Z",
      "apogee_km": 20652.736256278316,
      "perigee_km": 19711.248722221088,
      "latitude_deg": 7.618100111281766e-05,
      "longitude_deg": -56.45851750423136,
      "height_km": 19975.34159039084,
      "semi_major_axis_km": 26560.129489249703,
      "eccentricity": 0.0177237,
      "inclination_deg": 53.5685,
      "raan_deg": 146.9649,
      "arg_perigee_deg": 64.9128,
      "mean_anomaly_deg": 296.9786,
      "mean_motion_rev_day": 2.00566077
    }
  ]
}